[{"OBJECT_NAME":"ONEWEB-0423","OBJECT_ID":"2022-012F","EPOCH":"2026-03-09T21:30:26.754336","MEAN_MOTION":13.17648424,"ECCENTRICITY":0.00017659,"INCLINATION":87.916,"RA_OF_ASC_NODE":25.5764,"ARG_OF_PERICENTER":82.6337,"MEAN_ANOMALY":277.4995,"EPHEMERIS_TYPE":0,"CLASSIFICATION_TYPE":"U","NORAD_CAT_ID":51627,"ELEMENT_SET_NO":999,"REV_AT_EPOCH":20062,"BSTAR":0.00014989039,"MEAN_MOTION_DOT":7.1e-7,"MEAN_MOTION_DDOT":0},{"OBJECT_NAME":"DELTA 1 DEB","OBJECT_ID":"1975-052EB","EPOCH":"2026-03-09T08:55:35.755968","MEAN_MOTION":13.31695006,"ECCENTRICITY":0.0068239,"INCLINATION":99.8121,"RA_OF_ASC_NODE":203.4255,"ARG_OF_PERICENTER":191.947,"MEAN_ANOMALY":233.1789,"EPHEMERIS_TYPE":0,"CLASSIFICATION_TYPE":"U","NORAD_CAT_ID":21443,"ELEMENT_SET_NO":999,"REV_AT_EPOCH":69335,"BSTAR":0.00014298549,"MEAN_MOTION_DOT":2.7e-7,"MEAN_MOTION_DDOT":0}]
